[{"OBJECT_NAME":"STARLINK-34512","OBJECT_ID":"2025-129H","EPOCH":"2026-03-09T16:00:03.000096","MEAN_MOTION":14.98346978,"ECCENTRICITY":0.00032586,"INCLINATION":70.0002,"RA_OF_ASC_NODE":74.612,"ARG_OF_PERICENTER":271.1613,"MEAN_ANOMALY":5.2775,"EPHEMERIS_TYPE":0,"CLASSIFICATION_TYPE":"U","NORAD_CAT_ID":64419,"ELEMENT_SET_NO":999,"REV_AT_EPOCH":577,"BSTAR":-0.0038309179,"MEAN_MOTION_DOT":-0.00045528,"MEAN_MOTION_DDOT":0},{"OBJECT_NAME":"3CAT-4","OBJECT_ID":"2024-128B","EPOCH":"2026-03-09T23:24:16.548192","MEAN_MOTION":15.017951,"ECCENTRICITY":0.00535476,"INCLINATION":61.9919,"RA_OF_ASC_NODE":211.2729,"ARG_OF_PERICENTER":115.9438,"MEAN_ANOMALY":244.7184,"EPHEMERIS_TYPE":0,"CLASSIFICATION_TYPE":"U","NORAD_CAT_ID":60236,"ELEMENT_SET_NO":999,"REV_AT_EPOCH":9120,"BSTAR":0.00028129934,"MEAN_MOTION_DOT":3.584e-5,"MEAN_MOTION_DDOT":0}]
